ICEYE-X2                
1 43800U 18099AU  26189.96267544  .00004189  00000+0  20920-3 0  9998
2 43800  97.4347 243.4220 0009185 218.6969 141.3608 15.17990601416128
ICEYE-X4                
1 44390U 19038D   26189.98313756  .00007914  00000+0  27662-3 0  9995
2 44390  97.8755 224.1829 0012249 220.7715 139.2609 15.29787456385137
ICEYE-X7                
1 46496U 20068L   26189.96064102  .00007471  00000+0  24437-3 0  9990
2 46496  97.7501 157.4843 0005471 240.8728 119.1965 15.32006630318123
ICEYE-X6                
1 46497U 20068M   26189.93843198  .00002581  00000+0  18839-3 0  9994
2 46497  98.0976 184.6513 0007749  27.9689 332.1951 15.04640193316509
ICEYE-X21               
1 55049U 23001AS  26175.21618542  .01585954  23968-5  60214-3 0  9995
2 55049  97.3001 262.6152 0012377 285.9702  74.0225 16.24069885194757
ICEYE-X25               
1 56963U 23084AH  26189.91283659  .00036486  00000+0  41214-3 0  9996
2 56963  97.5903 337.6926 0003982 205.1963 154.9101 15.62392999171362
ICEYE-X31               
1 58288U 23174AJ  26189.97981044  .00012101  00000+0  35813-3 0  9993
2 58288  97.3773 265.7233 0002082 205.5442 154.5699 15.35038275148091
ICEYE-X34               
1 58294U 23174AQ  26189.75856509  .00129633  00000+0  10776-2 0  9992
2 58294  97.3861 282.0601 0001600 191.4512 168.6714 15.69750750149128
ICEYE-X35               
1 58302U 23174AY  26189.94826997  .00041959  00000+0  63166-3 0  9997
2 58302  97.3781 275.1524 0008343 127.1313 233.0705 15.54672292148722
ICEYE-X38               
1 59100U 24043C   26189.94287829  .00003338  00000+0  19277-3 0  9998
2 59100  97.8425 334.2938 0002867  38.2142 321.9291 15.13056130114960
ICEYE-X37               
1 59102U 24043E   26189.90461240  .00002018  00000+0  14170-3 0  9998
2 59102  97.8337 327.2515 0013629 297.9827  62.0020 15.06268118128353
ICEYE-X36               
1 59103U 24043F   26189.96231418  .00001992  00000+0  13671-3 0  9992
2 59103  97.8389 328.4262 0004750 237.4526 122.6243 15.07203423128420
ICEYE-X43               
1 60539U 24149BZ  26189.77997472  .00001755  00000+0  14675-3 0  9994
2 60539  97.6814 266.4552 0006953  14.9788 345.1640 14.99772584103351
ICEYE-X39               
1 60546U 24149CG  26189.75770551  .00002756  00000+0  22606-3 0  9992
2 60546  97.6770 266.4889 0006986  63.7023 296.4918 15.00041901103354
ICEYE-X33               
1 60548U 24149CJ  26189.76968319  .00003205  00000+0  25626-3 0  9991
2 60548  97.7339 268.7997 0001924  74.9418 285.2019 15.00930628103443
