{"fetched_at":"2026-07-09T18:17:07.615Z","source":"https://celestrak.org/NORAD/elements/gp.php?NAME=ICEYE&FORMAT=JSON","constellation":"iceye","records":[{"OBJECT_NAME":"ICEYE-X2","OBJECT_ID":"2018-099AU","EPOCH":"2026-07-08T23:06:15.158016","CLASSIFICATION_TYPE":"U","MEAN_MOTION":15.17990601,"ECCENTRICITY":0.00091854,"INCLINATION":97.4347,"RA_OF_ASC_NODE":243.422,"ARG_OF_PERICENTER":218.6969,"MEAN_ANOMALY":141.3608,"EPHEMERIS_TYPE":0,"NORAD_CAT_ID":43800,"ELEMENT_SET_NO":999,"REV_AT_EPOCH":41612,"BSTAR":0.0002092003,"MEAN_MOTION_DOT":0.00004189,"MEAN_MOTION_DDOT":0},{"OBJECT_NAME":"ICEYE-X4","OBJECT_ID":"2019-038D","EPOCH":"2026-07-08T23:35:43.085184","CLASSIFICATION_TYPE":"U","MEAN_MOTION":15.29787456,"ECCENTRICITY":0.00122499,"INCLINATION":97.8755,"RA_OF_ASC_NODE":224.1829,"ARG_OF_PERICENTER":220.7715,"MEAN_ANOMALY":139.2609,"EPHEMERIS_TYPE":0,"NORAD_CAT_ID":44390,"ELEMENT_SET_NO":999,"REV_AT_EPOCH":38513,"BSTAR":0.00027662357,"MEAN_MOTION_DOT":0.00007914,"MEAN_MOTION_DDOT":0},{"OBJECT_NAME":"ICEYE-X7","OBJECT_ID":"2020-068L","EPOCH":"2026-07-08T23:03:19.384128","CLASSIFICATION_TYPE":"U","MEAN_MOTION":15.3200663,"ECCENTRICITY":0.00054714,"INCLINATION":97.7501,"RA_OF_ASC_NODE":157.4843,"ARG_OF_PERICENTER":240.8728,"MEAN_ANOMALY":119.1965,"EPHEMERIS_TYPE":0,"NORAD_CAT_ID":46496,"ELEMENT_SET_NO":999,"REV_AT_EPOCH":31812,"BSTAR":0.00024436913,"MEAN_MOTION_DOT":0.00007471,"MEAN_MOTION_DDOT":0},{"OBJECT_NAME":"ICEYE-X6","OBJECT_ID":"2020-068M","EPOCH":"2026-07-08T22:31:20.523072","CLASSIFICATION_TYPE":"U","MEAN_MOTION":15.04640193,"ECCENTRICITY":0.00077492,"INCLINATION":98.0976,"RA_OF_ASC_NODE":184.6513,"ARG_OF_PERICENTER":27.9689,"MEAN_ANOMALY":332.1951,"EPHEMERIS_TYPE":0,"NORAD_CAT_ID":46497,"ELEMENT_SET_NO":999,"REV_AT_EPOCH":31650,"BSTAR":0.00018838662,"MEAN_MOTION_DOT":0.00002581,"MEAN_MOTION_DDOT":0},{"OBJECT_NAME":"ICEYE-X21","OBJECT_ID":"2023-001AS","EPOCH":"2026-06-24T05:11:18.420288","CLASSIFICATION_TYPE":"U","MEAN_MOTION":16.24069885,"ECCENTRICITY":0.00123774,"INCLINATION":97.3001,"RA_OF_ASC_NODE":262.6152,"ARG_OF_PERICENTER":285.9702,"MEAN_ANOMALY":74.0225,"EPHEMERIS_TYPE":0,"NORAD_CAT_ID":55049,"ELEMENT_SET_NO":999,"REV_AT_EPOCH":19475,"BSTAR":0.000602142,"MEAN_MOTION_DOT":0.01585954,"MEAN_MOTION_DDOT":0.000002396838},{"OBJECT_NAME":"ICEYE-X25","OBJECT_ID":"2023-084AH","EPOCH":"2026-07-08T21:54:29.081376","CLASSIFICATION_TYPE":"U","MEAN_MOTION":15.62392999,"ECCENTRICITY":0.00039825,"INCLINATION":97.5903,"RA_OF_ASC_NODE":337.6926,"ARG_OF_PERICENTER":205.1963,"MEAN_ANOMALY":154.9101,"EPHEMERIS_TYPE":0,"NORAD_CAT_ID":56963,"ELEMENT_SET_NO":999,"REV_AT_EPOCH":17136,"BSTAR":0.0004121447,"MEAN_MOTION_DOT":0.00036486,"MEAN_MOTION_DDOT":0},{"OBJECT_NAME":"ICEYE-X31","OBJECT_ID":"2023-174AJ","EPOCH":"2026-07-08T23:30:55.622016","CLASSIFICATION_TYPE":"U","MEAN_MOTION":15.35038275,"ECCENTRICITY":0.00020826,"INCLINATION":97.3773,"RA_OF_ASC_NODE":265.7233,"ARG_OF_PERICENTER":205.5442,"MEAN_ANOMALY":154.5699,"EPHEMERIS_TYPE":0,"NORAD_CAT_ID":58288,"ELEMENT_SET_NO":999,"REV_AT_EPOCH":14809,"BSTAR":0.00035813238,"MEAN_MOTION_DOT":0.00012101,"MEAN_MOTION_DDOT":0},{"OBJECT_NAME":"ICEYE-X34","OBJECT_ID":"2023-174AQ","EPOCH":"2026-07-08T18:12:20.023776","CLASSIFICATION_TYPE":"U","MEAN_MOTION":15.6975075,"ECCENTRICITY":0.00016009,"INCLINATION":97.3861,"RA_OF_ASC_NODE":282.0601,"ARG_OF_PERICENTER":191.4512,"MEAN_ANOMALY":168.6714,"EPHEMERIS_TYPE":0,"NORAD_CAT_ID":58294,"ELEMENT_SET_NO":999,"REV_AT_EPOCH":14912,"BSTAR":0.001077636,"MEAN_MOTION_DOT":0.00129633,"MEAN_MOTION_DDOT":0},{"OBJECT_NAME":"ICEYE-X35","OBJECT_ID":"2023-174AY","EPOCH":"2026-07-08T22:45:30.525408","CLASSIFICATION_TYPE":"U","MEAN_MOTION":15.54672292,"ECCENTRICITY":0.00083435,"INCLINATION":97.3781,"RA_OF_ASC_NODE":275.1524,"ARG_OF_PERICENTER":127.1313,"MEAN_ANOMALY":233.0705,"EPHEMERIS_TYPE":0,"NORAD_CAT_ID":58302,"ELEMENT_SET_NO":999,"REV_AT_EPOCH":14872,"BSTAR":0.00063166395,"MEAN_MOTION_DOT":0.00041959,"MEAN_MOTION_DDOT":0},{"OBJECT_NAME":"ICEYE-X38","OBJECT_ID":"2024-043C","EPOCH":"2026-07-08T22:37:44.684256","CLASSIFICATION_TYPE":"U","MEAN_MOTION":15.1305613,"ECCENTRICITY":0.00028678,"INCLINATION":97.8425,"RA_OF_ASC_NODE":334.2938,"ARG_OF_PERICENTER":38.2142,"MEAN_ANOMALY":321.9291,"EPHEMERIS_TYPE":0,"NORAD_CAT_ID":59100,"ELEMENT_SET_NO":999,"REV_AT_EPOCH":11496,"BSTAR":0.00019277137,"MEAN_MOTION_DOT":0.00003338,"MEAN_MOTION_DDOT":0},{"OBJECT_NAME":"ICEYE-X37","OBJECT_ID":"2024-043E","EPOCH":"2026-07-08T21:42:38.511360","CLASSIFICATION_TYPE":"U","MEAN_MOTION":15.06268118,"ECCENTRICITY":0.00136291,"INCLINATION":97.8337,"RA_OF_ASC_NODE":327.2515,"ARG_OF_PERICENTER":297.9827,"MEAN_ANOMALY":62.002,"EPHEMERIS_TYPE":0,"NORAD_CAT_ID":59102,"ELEMENT_SET_NO":999,"REV_AT_EPOCH":12835,"BSTAR":0.00014169765,"MEAN_MOTION_DOT":0.00002018,"MEAN_MOTION_DDOT":0},{"OBJECT_NAME":"ICEYE-X36","OBJECT_ID":"2024-043F","EPOCH":"2026-07-08T23:05:43.945152","CLASSIFICATION_TYPE":"U","MEAN_MOTION":15.07203423,"ECCENTRICITY":0.000475,"INCLINATION":97.8389,"RA_OF_ASC_NODE":328.4262,"ARG_OF_PERICENTER":237.4526,"MEAN_ANOMALY":122.6243,"EPHEMERIS_TYPE":0,"NORAD_CAT_ID":59103,"ELEMENT_SET_NO":999,"REV_AT_EPOCH":12842,"BSTAR":0.00013670622,"MEAN_MOTION_DOT":0.00001992,"MEAN_MOTION_DDOT":0},{"OBJECT_NAME":"ICEYE-X43","OBJECT_ID":"2024-149BZ","EPOCH":"2026-07-08T18:43:09.815808","CLASSIFICATION_TYPE":"U","MEAN_MOTION":14.99772584,"ECCENTRICITY":0.00069538,"INCLINATION":97.6814,"RA_OF_ASC_NODE":266.4552,"ARG_OF_PERICENTER":14.9788,"MEAN_ANOMALY":345.164,"EPHEMERIS_TYPE":0,"NORAD_CAT_ID":60539,"ELEMENT_SET_NO":999,"REV_AT_EPOCH":10335,"BSTAR":0.00014675091,"MEAN_MOTION_DOT":0.00001755,"MEAN_MOTION_DDOT":0},{"OBJECT_NAME":"ICEYE-X39","OBJECT_ID":"2024-149CG","EPOCH":"2026-07-08T18:11:05.756064","CLASSIFICATION_TYPE":"U","MEAN_MOTION":15.00041901,"ECCENTRICITY":0.00069867,"INCLINATION":97.677,"RA_OF_ASC_NODE":266.4889,"ARG_OF_PERICENTER":63.7023,"MEAN_ANOMALY":296.4918,"EPHEMERIS_TYPE":0,"NORAD_CAT_ID":60546,"ELEMENT_SET_NO":999,"REV_AT_EPOCH":10335,"BSTAR":0.00022606183,"MEAN_MOTION_DOT":0.00002756,"MEAN_MOTION_DDOT":0},{"OBJECT_NAME":"ICEYE-X33","OBJECT_ID":"2024-149CJ","EPOCH":"2026-07-08T18:28:20.627616","CLASSIFICATION_TYPE":"U","MEAN_MOTION":15.00930628,"ECCENTRICITY":0.00019242,"INCLINATION":97.7339,"RA_OF_ASC_NODE":268.7997,"ARG_OF_PERICENTER":74.9418,"MEAN_ANOMALY":285.2019,"EPHEMERIS_TYPE":0,"NORAD_CAT_ID":60548,"ELEMENT_SET_NO":999,"REV_AT_EPOCH":10344,"BSTAR":0.00025626102,"MEAN_MOTION_DOT":0.00003205,"MEAN_MOTION_DDOT":0}]}
